NORAD_CAT_ID,OBJECT_NAME,OBJECT_TYPE,EPOCH,MEAN_MOTION,ECCENTRICITY,INCLINATION,RA_OF_ASC_NODE,ARG_OF_PERICENTER,MEAN_ANOMALY,BSTAR,MEAN_MOTION_DOT,MEAN_MOTION_DDOT,TLE_LINE0,TLE_LINE1,TLE_LINE2,SEMIMAJOR_AXIS,PERIOD,APOGEE,PERIGEE,DECAYED
51863.0,STARLINK-3555,PAYLOAD,2024-03-03 04:23:35,15.0883712,0.0001584,53.2176,75.4241,94.8517,265.2656,2.1048e-05,4.7e-07,0.0,0 STARLINK-3555,1 51863U 22022M   24063.18305007  .00000047  00000-0  21048-4 0  9990,2 51863  53.2176  75.4241 0001584  94.8517 265.2656 15.08837120111925,6917.889,95.438,540.85,538.658,0.0
51863.0,STARLINK-3555,PAYLOAD,2024-03-03 07:34:21,15.08838744,0.0001567,53.2176,74.8293,96.1655,263.9516,3.293e-05,2.36e-06,0.0,0 STARLINK-3555,1 51863U 22022M   24063.31552889  .00000236  00000-0  32930-4 0  9999,2 51863  53.2176  74.8293 0001567  96.1655 263.9516 15.08838744111949,6917.884,95.438,540.833,538.665,0.0
51863.0,STARLINK-3555,PAYLOAD,2024-03-04 05:49:45,15.08844584,0.0001566,53.2175,70.6674,97.7534,262.3636,5.2841e-05,5.53e-06,0.0,0 STARLINK-3555,1 51863U 22022M   24064.24288569  .00000553  00000-0  52841-4 0  9998,2 51863  53.2175  70.6674 0001566  97.7534 262.3636 15.08844584112088,6917.866,95.437,540.815,538.648,0.0
51863.0,STARLINK-3555,PAYLOAD,2024-03-04 16:57:27,15.08839283,0.0001386,53.2168,68.5853,82.3563,277.7586,6.0725e-05,6.79e-06,0.0,0 STARLINK-3555,1 51863U 22022M   24064.70656838  .00000679  00000-0  60725-4 0  9996,2 51863  53.2168  68.5853 0001386  82.3563 277.7586 15.08839283112159,6917.883,95.438,540.706,538.789,0.0
51863.0,STARLINK-3555,PAYLOAD,2024-03-05 04:05:11,15.0882006,0.00015,53.2174,66.5065,95.417,264.6994,-8.6443e-05,-1.663e-05,0.0,0 STARLINK-3555,1 51863U 22022M   24065.17026881 -.00001663  00000-0 -86443-4 0  9998,2 51863  53.2174  66.5065 0001500  95.4170 264.6994 15.08820060112225,6917.941,95.439,540.844,538.769,0.0
51863.0,STARLINK-3555,PAYLOAD,2024-03-05 08:51:20,15.08824137,0.0001548,53.2181,65.6132,91.3923,268.7247,-6.0142e-05,-1.245e-05,0.0,0 STARLINK-3555,1 51863U 22022M   24065.36898766 -.00001245  00000-0 -60142-4 0  9992,2 51863  53.2181  65.6132 0001548  91.3923 268.7247 15.08824137112259,6917.929,95.439,540.865,538.723,0.0
51863.0,STARLINK-3555,PAYLOAD,2024-03-05 16:48:15,15.088322,0.0001564,53.2183,64.1268,93.9745,266.1426,3.0801e-05,2.02e-06,0.0,0 STARLINK-3555,1 51863U 22022M   24065.70018227  .00000202  00000-0  30801-4 0  9995,2 51863  53.2183  64.1268 0001564  93.9745 266.1426 15.08832200112300,6917.904,95.438,540.851,538.687,0.0
51863.0,STARLINK-3555,PAYLOAD,2024-03-06 03:55:56,15.08846978,0.0001582,53.2178,62.0447,91.5741,268.5432,0.00011791,1.589e-05,0.0,0 STARLINK-3555,1 51863U 22022M   24066.16385183  .00001589  00000-0  11791-3 0  9999,2 51863  53.2178  62.0447 0001582  91.5741 268.5432 15.08846978112377,6917.859,95.437,540.818,538.63,0.0
51863.0,STARLINK-3555,PAYLOAD,2024-03-06 08:42:05,15.08856628,0.000211,53.2181,61.1532,125.6168,234.5021,0.00013221,1.817e-05,0.0,0 STARLINK-3555,1 51863U 22022M   24066.36256479  .00001817  00000-0  13221-3 0  9990,2 51863  53.2181  61.1532 0002110 125.6168 234.5021 15.08856628112400,6917.83,95.437,541.154,538.235,0.0
51863.0,STARLINK-3555,PAYLOAD,2024-03-07 03:46:44,15.08836911,0.0001837,53.2169,57.5841,109.4327,250.6864,0.00022473,3.29e-05,0.0,0 STARLINK-3555,1 51863U 22022M   24067.15746025  .00003290  00000-0  22473-3 0  9995,2 51863  53.2169  57.5841 0001837 109.4327 250.6864 15.08836911112520,6917.89,95.438,541.026,538.484,0.0
51863.0,STARLINK-3555,PAYLOAD,2024-03-07 08:32:53,15.08844381,0.0001383,53.2167,56.6914,92.2305,267.8845,0.00024013,3.536e-05,0.0,0 STARLINK-3555,1 51863U 22022M   24067.35617839  .00003536  00000-0  24013-3 0  9992,2 51863  53.2167  56.6914 0001383  92.2305 267.8845 15.08844381112552,6917.867,95.437,540.689,538.775,0.0
51863.0,STARLINK-3555,PAYLOAD,2024-03-08 08:23:40,15.08845898,0.0001508,53.2164,52.2283,91.9407,268.1758,0.00017764,2.541e-05,0.0,0 STARLINK-3555,1 51863U 22022M   24068.34977745  .00002541  00000-0  17764-3 0  9997,2 51863  53.2164  52.2283 0001508  91.9407 268.1758 15.08845898112706,6917.862,95.437,540.771,538.684,0.0
51863.0,STARLINK-3555,PAYLOAD,2024-03-08 16:20:36,15.08839974,0.0001769,53.2181,50.7407,100.1199,259.9993,0.0001024,1.342e-05,0.0,0 STARLINK-3555,1 51863U 22022M   24068.68098067  .00001342  00000-0  10240-3 0  9995,2 51863  53.2181  50.7407 0001769 100.1199 259.9993 15.08839974112758,6917.88,95.438,540.969,538.522,0.0
51863.0,STARLINK-3555,PAYLOAD,2024-03-09 03:28:18,15.08844544,0.0001442,53.2185,48.6605,106.5501,253.565,0.00022154,3.24e-05,0.0,0 STARLINK-3555,1 51863U 22022M   24069.14465896  .00003240  00000-0  22154-3 0  9991,2 51863  53.2185  48.6605 0001442 106.5501 253.5650 15.08844544112820,6917.866,95.437,540.729,538.734,0.0
51863.0,STARLINK-3555,PAYLOAD,2024-03-09 05:03:41,15.08849277,0.0001429,53.2169,48.3636,103.0857,257.0295,0.00030239,4.529e-05,0.0,0 STARLINK-3555,1 51863U 22022M   24069.21089779  .00004529  00000-0  30239-3 0  9995,2 51863  53.2169  48.3636 0001429 103.0857 257.0295 15.08849277112837,6917.852,95.437,540.706,538.728,0.0
51863.0,STARLINK-3555,PAYLOAD,2024-03-09 22:32:56,15.08845241,0.00014,53.2161,45.0903,101.006,259.109,0.00018855,2.715e-05,0.0,0 STARLINK-3555,1 51863U 22022M   24069.93953803  .00002715  00000-0  18855-3 0  9997,2 51863  53.2161  45.0903 0001400 101.0060 259.1090 15.08845241112948,6917.864,95.437,540.698,538.761,0.0
51863.0,STARLINK-3555,PAYLOAD,2024-03-10 04:54:28,15.08850946,0.000132,53.2171,43.9031,97.5875,262.5267,0.00028211,4.206e-05,0.0,0 STARLINK-3555,1 51863U 22022M   24070.20449677  .00004206  00000-0  28211-3 0  9992,2 51863  53.2171  43.9031 0001320  97.5875 262.5267 15.08850946112988,6917.847,95.437,540.625,538.799,0.0
51863.0,STARLINK-3555,PAYLOAD,2024-03-10 22:23:43,15.08840614,0.0001312,53.2171,40.6318,96.8229,263.2912,7.783e-05,9.51e-06,0.0,0 STARLINK-3555,1 51863U 22022M   24070.93314015  .00000951  00000-0  77830-4 0  9994,2 51863  53.2171  40.6318 0001312  96.8229 263.2912 15.08840614113095,6917.879,95.438,540.651,538.836,0.0
51863.0,STARLINK-3555,PAYLOAD,2024-03-11 04:45:15,15.08840631,0.0001244,53.2172,39.4453,90.0462,270.0673,4.7375e-05,4.66e-06,0.0,0 STARLINK-3555,1 51863U 22022M   24071.19810036  .00000466  00000-0  47375-4 0  9999,2 51863  53.2172  39.4453 0001244  90.0462 270.0673 15.08840631113135,6917.878,95.438,540.604,538.883,0.0
51863.0,STARLINK-3555,PAYLOAD,2024-03-11 14:17:34,15.08838109,0.0001213,53.2172,37.6608,87.7608,272.3523,5.1363e-05,5.3e-06,0.0,0 STARLINK-3555,1 51863U 22022M   24071.59554238  .00000530  00000-0  51363-4 0  9996,2 51863  53.2172  37.6608 0001213  87.7608 272.3523 15.08838109113190,6917.886,95.438,540.59,538.912,0.0
51863.0,STARLINK-3555,PAYLOAD,2024-03-12 07:46:49,15.08846733,0.0001218,53.2176,34.39,86.4865,273.6267,0.00023384,3.436e-05,0.0,0 STARLINK-3555,1 51863U 22022M   24072.32418037  .00003436  00000-0  23384-3 0  9993,2 51863  53.2176  34.3900 0001218  86.4865 273.6267 15.08846733113303,6917.86,95.437,540.567,538.882,0.0
51863.0,STARLINK-3555,PAYLOAD,2024-03-12 14:08:21,15.08844767,0.0001249,53.2177,33.1998,85.485,274.6285,0.00019801,2.865e-05,0.0,0 STARLINK-3555,1 51863U 22022M   24072.58914027  .00002865  00000-0  19801-3 0  9995,2 51863  53.2177  33.1998 0001249  85.4850 274.6285 15.08844767113345,6917.866,95.437,540.595,538.867,0.0
51863.0,STARLINK-3555,PAYLOAD,2024-03-13 04:26:50,15.08838402,0.0001492,53.2198,30.523,84.2317,275.8845,0.00010082,1.317e-05,0.0,0 STARLINK-3555,1 51863U 22022M   24073.18530499  .00001317  00000-0  10082-3 0  9992,2 51863  53.2198  30.5230 0001492  84.2317 275.8845 15.08838402113437,6917.885,95.438,540.782,538.718,0.0
51863.0,STARLINK-3555,PAYLOAD,2024-03-13 06:02:13,15.08841903,0.0001499,53.2187,30.2278,90.9403,269.1761,0.00012698,1.734e-05,0.0,0 STARLINK-3555,1 51863U 22022M   24073.25154306  .00001734  00000-0  12698-3 0  9997,2 51863  53.2187  30.2278 0001499  90.9403 269.1761 15.08841903113445,6917.875,95.437,540.777,538.703,0.0
51863.0,STARLINK-3555,PAYLOAD,2024-03-13 20:20:41,15.08841198,0.0001609,53.2197,27.552,95.5187,264.5988,7.2901e-05,8.72e-06,0.0,0 STARLINK-3555,1 51863U 22022M   24073.84770420  .00000872  00000-0  72901-4 0  9999,2 51863  53.2197  27.5520 0001609  95.5187 264.5988 15.08841198113534,6917.877,95.437,540.855,538.629,0.0
51863.0,STARLINK-3555,PAYLOAD,2024-03-14 05:53:00,15.08844765,0.0001491,53.2187,25.7662,82.2598,277.8564,8.5022e-05,1.066e-05,0.0,0 STARLINK-3555,1 51863U 22022M   24074.24514267  .00001066  00000-0  85022-4 0  9993,2 51863  53.2187  25.7662 0001491  82.2598 277.8564 15.08844765113594,6917.866,95.437,540.762,538.699,0.0
51863.0,STARLINK-3555,PAYLOAD,2024-03-14 20:11:28,15.08839601,0.0001674,53.2185,23.092,75.874,284.2438,8.9595e-05,1.138e-05,0.0,0 STARLINK-3555,1 51863U 22022M   24074.84130691  .00001138  00000-0  89595-4 0  9993,2 51863  53.2185  23.0920 0001674  75.8740 284.2438 15.08839601113685,6917.882,95.438,540.905,538.589,0.0
51863.0,STARLINK-3555,PAYLOAD,2024-03-15 20:02:15,15.0884004,0.0001714,53.2175,18.6325,67.3481,292.7692,0.00011517,1.545e-05,0.0,0 STARLINK-3555,1 51863U 22022M   24075.83490738  .00001545  00000-0  11517-3 0  9994,2 51863  53.2175  18.6325 0001714  67.3481 292.7692 15.08840040113838,6917.88,95.438,540.931,538.56,0.0
51863.0,STARLINK-3555,PAYLOAD,2024-03-16 02:23:48,15.0883899,0.0001721,53.218,17.4425,72.8797,287.2383,6.395e-05,7.3e-06,0.0,0 STARLINK-3555,1 51863U 22022M   24076.09986831  .00000730  00000-0  63950-4 0  9991,2 51863  53.2180  17.4425 0001721  72.8797 287.2383 15.08838990113872,6917.883,95.438,540.939,538.558,0.0
51863.0,STARLINK-3555,PAYLOAD,2024-03-16 23:03:49,15.08844868,0.0001398,53.2188,13.5752,95.5127,264.6025,5.7084e-05,6.21e-06,0.0,0 STARLINK-3555,1 51863U 22022M   24076.96098416  .00000621  00000-0  57084-4 0  9990,2 51863  53.2188  13.5752 0001398  95.5127 264.6025 15.08844868114008,6917.866,95.437,540.698,538.763,0.0
